NORAD_CAT_ID,OBJECT_NAME,OBJECT_TYPE,EPOCH,MEAN_MOTION,ECCENTRICITY,INCLINATION,RA_OF_ASC_NODE,ARG_OF_PERICENTER,MEAN_ANOMALY,BSTAR,MEAN_MOTION_DOT,MEAN_MOTION_DDOT,TLE_LINE0,TLE_LINE1,TLE_LINE2,SEMIMAJOR_AXIS,PERIOD,APOGEE,PERIGEE,DECAYED
51812.0,STARLINK-3610,PAYLOAD,2022-03-11 20:00:01,15.73212441,0.0001412,53.2175,73.3196,82.4468,48.2398,-7.7333e-05,-0.00011464,0.0,0 STARLINK-3610,1 51812U 22017AW  22070.83334491 -.00011464  00000-0 -77333-4 0  9990,2 51812  53.2175  73.3196 0001412  82.4468  48.2398 15.73212441  3468,6727.86,91.532,350.675,348.775,0.0
51812.0,STARLINK-3610,PAYLOAD,2022-03-11 22:00:00,15.73205275,0.0001453999999999,53.2173,72.9063,79.5473,163.3779,-1.2669e-05,-2.398e-05,0.0,0 STARLINK-3610,1 51812U 22017AW  22070.91667824 -.00002398  00000-0 -12669-4 0  9995,2 51812  53.2173  72.9063 0001454  79.5473 163.3779 15.73205275  2753,6727.88,91.533,350.723,348.767,0.0
51812.0,STARLINK-3610,PAYLOAD,2022-03-12 04:00:00,15.7318471,0.0001242,53.2194,71.6807,70.19,149.6668,-3.096e-05,-4.959e-05,0.0,0 STARLINK-3610,1 51812U 22017AW  22071.16667824 -.00004959  00000-0 -30960-4 0  9992,2 51812  53.2194  71.6807 0001242  70.1900 149.6668 15.73184710  3514,6727.939,91.534,350.639,348.968,0.0
51812.0,STARLINK-3610,PAYLOAD,2022-03-12 12:00:00,15.73229849,0.0001274999999999,53.2187,70.0323,62.9407,245.8455,0.0001066,0.00014385,0.0,0 STARLINK-3610,1 51812U 22017AW  22071.50001157  .00014385  00000-0  10660-3 0  9997,2 51812  53.2187  70.0323 0001275  62.9407 245.8455 15.73229849  3571,6727.81,91.531,350.533,348.81699999999995,0.0
51812.0,STARLINK-3610,PAYLOAD,2022-03-12 14:00:01,15.73265834,0.0001314,53.2186,69.6194,66.3537,354.6645,-0.0004475,-0.00063131,0.0,0 STARLINK-3610,1 51812U 22017AW  22071.58334491 -.00063131  00000-0 -44750-3 0  9997,2 51812  53.2186  69.6194 0001314  66.3537 354.6645 15.73265834  2861,6727.706999999999,91.529,350.457,348.68800000000016,0.0
51812.0,STARLINK-3610,PAYLOAD,2022-03-12 22:00:00,15.73217301,0.0001262999999999,53.2187,67.9683,82.3113,67.67699999999999,0.00014083,0.00019204,0.0,0 STARLINK-3610,1 51812U 22017AW  22071.91667824  .00019204  00000-0  14083-3 0  9999,2 51812  53.2187  67.9683 0001263  82.3113  67.6770 15.73217301  2919,6727.846,91.532,350.561,348.861,0.0
51812.0,STARLINK-3610,PAYLOAD,2022-03-13 04:00:00,15.73237211,0.0001127,53.2189,66.7326,73.4148,53.2763,-0.0008727,-0.00121534,0.0,0 STARLINK-3610,1 51812U 22017AW  22072.16667824 -.00121534  00000-0 -87270-3 0  9997,2 51812  53.2189  66.7326 0001127  73.4148  53.2763 15.73237211  3679,6727.7890000000025,91.531,350.412,348.896,0.0
51812.0,STARLINK-3610,PAYLOAD,2022-03-13 12:00:00,15.73160659,0.0001085999999999,53.2187,65.084,63.7576,151.8512,-0.00028198,-0.00039938,0.0,0 STARLINK-3610,1 51812U 22017AW  22072.50001157 -.00039938  00000-0 -28198-3 0  9996,2 51812  53.2187  65.0840 0001086  63.7576 151.8512 15.73160659  3725,6728.007,91.535,350.603,349.142,0.0
51812.0,STARLINK-3610,PAYLOAD,2022-03-13 14:00:01,15.73159863,0.0001085999999999,53.2189,64.6711,67.0215,260.8035,-0.00033865,-0.00047795,0.0,0 STARLINK-3610,1 51812U 22017AW  22072.58334491 -.00047795  00000-0 -33865-3 0  9991,2 51812  53.2189  64.6711 0001086  67.0215 260.8035 15.73159863  3014,6728.01,91.536,350.605,349.144,0.0
51812.0,STARLINK-3610,PAYLOAD,2022-03-13 20:00:01,15.72991971,0.0001321,53.2178,63.4253,80.0201,224.604,-8.5534e-05,-0.00012498,0.0,0 STARLINK-3610,1 51812U 22017AW  22072.83334491 -.00012498  00000-0 -85534-4 0  9992,2 51812  53.2178  63.4253 0001321  80.0201 224.6040 15.72991971  3783,6728.488,91.545,351.242,349.465,0.0
51812.0,STARLINK-3610,PAYLOAD,2022-03-13 22:00:01,15.72725978,0.0001177,53.2176,63.0114,86.9892,329.9549,0.0041208999999999,0.00609342,0.0,0 STARLINK-3610,1 51812U 22017AW  22072.91668981  .00609342  00000-0  41209-2 0  9992,2 51812  53.2176  63.0114 0001177  86.9892 329.9549 15.72725978  3070,6729.246999999999,91.561,351.904,350.32,0.0
51812.0,STARLINK-3610,PAYLOAD,2022-03-14 04:00:00,15.732555,0.0001153,53.2193,61.7842,73.5361,319.9769,-0.00016103,-0.0002321,0.0,0 STARLINK-3610,1 51812U 22017AW  22073.16667824 -.00023210  00000-0 -16103-3 0  9997,2 51812  53.2193  61.7842 0001153  73.5361 319.9769 15.73255500  3836,6727.736999999999,91.53,350.37800000000016,348.826,0.0
51812.0,STARLINK-3610,PAYLOAD,2022-03-14 12:00:00,15.73292692,0.0001169,53.2187,60.1351,68.2726,54.2281,-0.00016312,-0.0002354,0.0,0 STARLINK-3610,1 51812U 22017AW  22073.50001157 -.00023540  00000-0 -16312-3 0  9994,2 51812  53.2187  60.1351 0001169  68.2726  54.2281 15.73292692  3886,6727.630999999999,91.528,350.282,348.709,0.0
51812.0,STARLINK-3610,PAYLOAD,2022-03-14 14:00:01,15.73307519,0.0001102,53.2186,59.7221,72.2168,162.6024,-0.00041341,-0.00058502,0.0,0 STARLINK-3610,1 51812U 22017AW  22073.58335648 -.00058502  00000-0 -41341-3 0  9993,2 51812  53.2186  59.7221 0001102  72.2168 162.6024 15.73307519  3173,6727.589,91.527,350.195,348.712,0.0
51812.0,STARLINK-3610,PAYLOAD,2022-03-14 20:00:01,15.73257471,9.59e-05,53.2187,58.4836,85.8753,125.6603,0.00049298,0.0006931,0.0,0 STARLINK-3610,1 51812U 22017AW  22073.83334491  .00069310  00000-0  49298-3 0  9992,2 51812  53.2187  58.4836 0000959  85.8753 125.6603 15.73257471  3219,6727.731,91.53,350.242,348.951,0.0
51812.0,STARLINK-3610,PAYLOAD,2022-03-15 00:00:00,15.73306427,0.000105,53.219,57.6592,83.6018,352.3914,-0.00066888,-0.00093874,0.0,0 STARLINK-3610,1 51812U 22017AW  22074.00001157 -.00093874  00000-0 -66888-3 0  9990,2 51812  53.2190  57.6592 0001050  83.6018 352.3914 15.73306427  3968,6727.592,91.527,350.163,348.75,0.0
51812.0,STARLINK-3610,PAYLOAD,2022-03-15 02:00:01,15.7331856,0.0001048,53.219,57.2474,81.9265,106.3211,-0.0011664,-0.00162017,0.0,0 STARLINK-3610,1 51812U 22017AW  22074.08334491 -.00162017  00000-0 -11664-2 0  9995,2 51812  53.2190  57.2474 0001048  81.9265 106.3211 15.73318560  3255,6727.557,91.526,350.12699999999984,348.717,0.0
51812.0,STARLINK-3610,PAYLOAD,2022-03-15 20:00:01,15.73004744,0.0001281,53.2192,53.5352,84.9581,33.2599,0.00077037,0.00107987,0.0,0 STARLINK-3610,1 51812U 22017AW  22074.83334491  .00107987  00000-0  77037-3 0  9998,2 51812  53.2192  53.5352 0001281  84.9581  33.2599 15.73004744  4090,6728.4519999999975,91.545,351.17900000000014,349.455,0.0
51812.0,STARLINK-3610,PAYLOAD,2022-03-15 22:00:00,15.73018746,0.000132,53.2194,53.1229,85.4799,144.9144,0.0008695,0.00122244,0.0,0 STARLINK-3610,1 51812U 22017AW  22074.91667824  .00122244  00000-0  86950-3 0  9993,2 51812  53.2194  53.1229 0001320  85.4799 144.9144 15.73018746  3397,6728.4119999999975,91.544,351.165,349.389,0.0
51812.0,STARLINK-3610,PAYLOAD,2022-03-16 14:00:01,15.73199844,0.0001136,53.2191,49.8257,77.8652,330.1526,0.00017332,0.00023773,0.0,0 STARLINK-3610,1 51812U 22017AW  22075.58334491  .00023773  00000-0  17332-3 0  9993,2 51812  53.2191  49.8257 0001136  77.8652 330.1526 15.73199844  3498,6727.896,91.533,350.525,348.996,0.0
51812.0,STARLINK-3610,PAYLOAD,2022-03-16 20:00:01,15.73192478,0.0001097,53.2191,48.5874,89.2579,295.4661,0.00074359,0.00105016,0.0,0 STARLINK-3610,1 51812U 22017AW  22075.83334491  .00105016  00000-0  74359-3 0  9994,2 51812  53.2191  48.5874 0001097  89.2579 295.4661 15.73192478  3534,6727.917,91.534,350.52,349.0440000000001,0.0
51812.0,STARLINK-3610,PAYLOAD,2022-03-17 04:00:00,15.73273929,0.0001023,53.2188,46.9398,79.6437,34.0246,-0.00055393,-0.00077886,0.0,0 STARLINK-3610,1 51812U 22017AW  22076.16667824 -.00077886  00000-0 -55393-3 0  9992,2 51812  53.2188  46.9398 0001023  79.6437  34.0246 15.73273929  4301,6727.684,91.529,350.23800000000006,348.861,0.0
51812.0,STARLINK-3610,PAYLOAD,2022-03-17 12:00:00,15.73252477,9.31e-05,53.2186,45.2902,77.4938,125.1463,-9.2905e-05,-0.00013666,0.0,0 STARLINK-3610,1 51812U 22017AW  22076.50001157 -.00013666  00000-0 -92905-4 0  9998,2 51812  53.2186  45.2902 0000931  77.4938 125.1463 15.73252477  4354,6727.746,91.53,350.237,348.9840000000001,0.0
51812.0,STARLINK-3610,PAYLOAD,2022-03-17 14:00:01,15.73280283,9.27e-05,53.2187,44.8771,80.7115,234.167,-0.00053794,-0.00075695,0.0,0 STARLINK-3610,1 51812U 22017AW  22076.58334491 -.00075695  00000-0 -53794-3 0  9998,2 51812  53.2187  44.8771 0000927  80.7115 234.1670 15.73280283  3652,6727.666,91.529,350.155,348.908,0.0
51812.0,STARLINK-3610,PAYLOAD,2022-03-17 22:00:00,15.73207626,0.0001152,53.219,43.2266,90.9078,312.9683,0.00042086,0.00058879,0.0,0 STARLINK-3610,1 51812U 22017AW  22076.91667824  .00058879  00000-0  42086-3 0  9999,2 51812  53.2190  43.2266 0001152  90.9078 312.9683 15.73207626  3705,6727.873000000001,91.533,350.51300000000015,348.963,0.0
51812.0,STARLINK-3610,PAYLOAD,2022-03-18 14:00:01,15.73238233,0.0001012,53.2189,39.9284,83.5948,138.1742,-0.00013087,-0.00018974,0.0,0 STARLINK-3610,1 51812U 22017AW  22077.58334491 -.00018974  00000-0 -13087-3 0  9997,2 51812  53.2189  39.9284 0001012  83.5948 138.1742 15.73238233  3728,6727.786,91.531,350.332,348.97,0.0
51812.0,STARLINK-3610,PAYLOAD,2022-03-18 20:00:01,15.73249792,0.0001202,53.2189,38.6904,93.3404,105.1495,-0.00058766,-0.00082464,0.0,0 STARLINK-3610,1 51812U 22017AW  22077.83334491 -.00082464  00000-0 -58766-3 0  9993,2 51812  53.2189  38.6904 0001202  93.3404 105.1495 15.73249792  4564,6727.753000000002,91.53,350.427,348.81,0.0
51812.0,STARLINK-3610,PAYLOAD,2022-03-18 22:00:00,15.73245627,0.0001271,53.2192,38.2784,93.1467,217.5843,-0.00070945,-0.00099213,0.0,0 STARLINK-3610,1 51812U 22017AW  22077.91667824 -.00099213  00000-0 -70945-3 0  9994,2 51812  53.2192  38.2784 0001271  93.1467 217.5843 15.73245627  3728,6727.765,91.531,350.485,348.775,0.0
51812.0,STARLINK-3610,PAYLOAD,2022-03-19 12:00:00,15.73189529,0.0001412,53.2191,35.3934,85.1842,291.1269,0.00012873,0.00017476,0.0,0 STARLINK-3610,1 51812U 22017AW  22078.50001157  .00017476  00000-0  12873-3 0  9996,2 51812  53.2191  35.3934 0001412  85.1842 291.1269 15.73189529  4670,6727.925,91.534,350.74,348.84,0.0
